OBJECT_NAME,OBJECT_ID,EPOCH,MEAN_MOTION,ECCENTRICITY,INCLINATION,RA_OF_ASC_NODE,ARG_OF_PERICENTER,MEAN_ANOMALY,EPHEMERIS_TYPE,CLASSIFICATION_TYPE,NORAD_CAT_ID,ELEMENT_SET_NO,REV_AT_EPOCH,BSTAR,MEAN_MOTION_DOT,MEAN_MOTION_DDOT
APRIZESAT 2,2004-025A,2026-07-16T10:31:56.378208,14.38047980,.0106017,98.1043,1.7670,161.1249,199.3916,0,U,28366,999,15584,.38768E-4,.83E-6,0
SAUDICOMSAT 1,2004-025D,2026-07-16T20:26:38.524128,14.55494205,.0030946,98.5778,208.7847,293.6248,66.1700,0,U,28369,999,16844,.40249E-4,.126E-5,0
SAUDICOMSAT 2,2004-025E,2026-07-16T20:48:18.458784,14.49994852,.0055734,98.6643,210.9523,168.6278,191.6189,0,U,28370,999,16440,.34428E-4,.86E-6,0
APRIZESAT 1,2004-025G,2026-07-16T07:26:59.416224,14.51792389,.0045756,98.6310,208.8290,67.3683,293.2341,0,U,28372,999,16613,.37774E-4,.105E-5,0
NANOSAT-1,2004-049B,2026-07-16T08:55:59.712960,14.80211927,.0003897,98.2311,334.7533,180.1961,179.9249,0,U,28493,999,15976,.66272E-4,.448E-5,0
SAUDICOMSAT 7,2007-012C,2026-07-16T11:01:29.779680,14.66137292,.0057004,98.3799,172.1933,104.4210,256.3328,0,U,31119,999,2672,.49329E-4,.224E-5,0
SAUDICOMSAT 6,2007-012E,2026-07-16T10:32:48.281280,14.62585067,.0070568,98.4118,165.5040,235.1547,124.3004,0,U,31121,999,2446,.39551E-4,.154E-5,0
SAUDICOMSAT 5,2007-012H,2026-07-16T20:51:08.346240,14.68193333,.0048135,98.3511,173.3524,33.6714,326.7533,0,U,31124,999,2795,.58563E-4,.289E-5,0
SAUDICOMSAT 3,2007-012J,2026-07-16T10:30:14.548032,14.70750734,.0038195,98.3165,173.4588,321.2381,38.6085,0,U,31125,999,2912,.63353E-4,.336E-5,0
SAUDICOMSAT 4,2007-012L,2026-07-16T11:09:31.931424,14.64535937,.0063666,98.4004,170.6359,165.7739,194.5275,0,U,31127,999,2557,.43767E-4,.185E-5,0
APRIZESAT 4,2009-041D,2026-07-16T15:46:01.197120,14.83914885,.0042314,98.1404,273.5636,224.6866,135.0935,0,U,35684,999,91573,.47854E-4,.344E-5,0
APRIZESAT 3,2009-041F,2026-07-16T20:34:42.235392,14.96313574,.0060741,98.2104,352.5098,330.3880,29.3905,0,U,35686,999,92081,.58323E-4,.614E-5,0
S-NET D,2018-014G,2026-07-16T19:38:29.708160,15.16926334,.000621,97.5330,102.4251,277.8290,82.2238,0,U,43186,999,46325,.14008E-3,.2695E-4,0
S-NET B,2018-014H,2026-07-16T15:10:51.223584,15.16894772,.0006804,97.5335,102.2279,272.4340,87.6114,0,U,43187,999,46322,.12959E-3,.2486E-4,0
S-NET A,2018-014J,2026-07-16T16:26:39.977088,15.16933876,.0006706,97.5345,102.4949,273.3963,86.6503,0,U,43188,999,46323,.13861E-3,.2666E-4,0
S-NET C,2018-014K,2026-07-16T07:21:42.297984,15.16883754,.0008049,97.5365,102.1976,265.5764,94.4549,0,U,43189,999,46172,.11698E-3,.2237E-4,0
SALSAT,2020-068K,2026-07-16T13:49:24.532032,15.30183636,.0009353,97.8858,202.4396,187.8123,172.2972,0,U,46495,999,31985,.14101E-3,.4037E-4,0
OOV-CUBE (TUBSAT-30),2024-128F,2026-07-16T19:08:10.180320,15.02877570,.0040918,61.9939,122.3151,140.3811,220.0282,0,U,60240,999,11056,.83798E-4,.932E-5,0
LPNTSAT-001 (IOD-1),2026-065A,2026-07-16T14:18:34.558848,15.18672911,.0014623,97.3978,77.4803,260.9687,98.9893,0,U,68408,999,1672,.668E-4,.132E-4,0
CHUANG XIN 26 (CX-26),2026-158A,2026-07-13T12:20:46.071168,14.25122238,.0004887,49.9860,287.5119,294.2352,65.8050,0,U,69972,999,46,-.21871415E-4,-.212E-5,0
