APRIZESAT 2             
1 28366U 04025A   26197.43884697  .00000083  00000+0  38768-4 0  9996
2 28366  98.1043   1.7670 0106017 161.1249 199.3916 14.38047980155847
SAUDICOMSAT 1           
1 28369U 04025D   26197.85183477  .00000126  00000+0  40249-4 0  9998
2 28369  98.5778 208.7847 0030946 293.6248  66.1700 14.55494205168448
SAUDICOMSAT 2           
1 28370U 04025E   26197.86688031  .00000086  00000+0  34428-4 0  9994
2 28370  98.6643 210.9523 0055734 168.6278 191.6189 14.49994852164407
APRIZESAT 1             
1 28372U 04025G   26197.31040991  .00000105  00000+0  37774-4 0  9992
2 28372  98.6310 208.8290 0045756  67.3683 293.2341 14.51792389166130
NANOSAT-1               
1 28493U 04049B   26197.37221890  .00000448  00000+0  66272-4 0  9992
2 28493  98.2311 334.7533 0003897 180.1961 179.9249 14.80211927159767
SAUDICOMSAT 7           
1 31119U 07012C   26197.45937245  .00000224  00000+0  49329-4 0  9997
2 31119  98.3799 172.1933 0057004 104.4210 256.3328 14.66137292 26723
SAUDICOMSAT 6           
1 31121U 07012E   26197.43944770  .00000154  00000+0  39551-4 0  9997
2 31121  98.4118 165.5040 0070568 235.1547 124.3004 14.62585067 24469
SAUDICOMSAT 5           
1 31124U 07012H   26197.86884660  .00000289  00000+0  58563-4 0  9991
2 31124  98.3511 173.3524 0048135  33.6714 326.7533 14.68193333 27953
SAUDICOMSAT 3           
1 31125U 07012J   26197.43766838  .00000336  00000+0  63353-4 0  9997
2 31125  98.3165 173.4588 0038195 321.2381  38.6085 14.70750734 29120
SAUDICOMSAT 4           
1 31127U 07012L   26197.46495291  .00000185  00000+0  43767-4 0  9993
2 31127  98.4004 170.6359 0063666 165.7739 194.5275 14.64535937 25576
APRIZESAT 4             
1 35684U 09041D   26197.65695830  .00000344  00000+0  47854-4 0  9999
2 35684  98.1404 273.5636 0042314 224.6866 135.0935 14.83914885915736
APRIZESAT 3             
1 35686U 09041F   26197.85743328  .00000614  00000+0  58323-4 0  9992
2 35686  98.2104 352.5098 0060741 330.3880  29.3905 14.96313574920810
S-NET D                 
1 43186U 18014G   26197.81839940  .00002695  00000+0  14008-3 0  9990
2 43186  97.5330 102.4251 0006210 277.8290  82.2238 15.16926334463255
S-NET B                 
1 43187U 18014H   26197.63253731  .00002486  00000+0  12959-3 0  9990
2 43187  97.5335 102.2279 0006804 272.4340  87.6114 15.16894772463224
S-NET A                 
1 43188U 18014J   26197.68518492  .00002666  00000+0  13861-3 0  9997
2 43188  97.5345 102.4949 0006706 273.3963  86.6503 15.16933876463235
S-NET C                 
1 43189U 18014K   26197.30673956  .00002237  00000+0  11698-3 0  9994
2 43189  97.5365 102.1976 0008049 265.5764  94.4549 15.16883754461727
SALSAT                  
1 46495U 20068K   26197.57597838  .00004037  00000+0  14101-3 0  9994
2 46495  97.8858 202.4396 0009353 187.8123 172.2972 15.30183636319853
OOV-CUBE (TUBSAT-30)    
1 60240U 24128F   26197.79734005  .00000932  00000+0  83798-4 0  9991
2 60240  61.9939 122.3151 0040918 140.3811 220.0282 15.02877570110567
LPNTSAT-001 (IOD-1)     
1 68408U 26065A   26197.59623332  .00001320  00000+0  66800-4 0  9992
2 68408  97.3978  77.4803 0014623 260.9687  98.9893 15.18672911 16727
CHUANG XIN 26 (CX-26)   
1 69972U 26158A   26194.51442212 -.00000212  00000+0 -21871-4 0  9997
2 69972  49.9860 287.5119 0004887 294.2352  65.8050 14.25122238   462
